{
  "type": "FeatureCollection",
  "features": [
    {
      "type": "Feature",
      "properties": {
        "norad_id": 41890,
        "name": "CYGFM07",
        "group": "weather",
        "lat": 13.374386006558499,
        "lon": 129.9367787911825,
        "alt_km": 416.88480014656034,
        "timestamp": "2025-12-20T14:38:01.600701+00:00",
        "meta_object_name": "CYGFM07",
        "meta_object_id": "2016-078G",
        "meta_epoch": "2025-12-20T04:41:24.813312",
        "meta_mean_motion": 15.5029931,
        "meta_eccentricity": 0.00100854,
        "meta_inclination": 34.9485,
        "meta_ra_of_asc_node": 332.5588,
        "meta_arg_of_pericenter": 278.9199,
        "meta_mean_anomaly": 81.0381,
        "meta_ephemeris_type": 0,
        "meta_classification_type": "U",
        "meta_norad_cat_id": 41890,
        "meta_element_set_no": 999,
        "meta_rev_at_epoch": 50111,
        "meta_bstar": 0.00029731438,
        "meta_mean_motion_dot": 0.00017397,
        "meta_mean_motion_ddot": 0,
        "tle_line1": "1 41890U 16078G   25354.19542608  .00017397  00000+0  29731-3 0  9999",
        "tle_line2": "2 41890  34.9485 332.5588 0010085 278.9199  81.0381 15.50299310501114"
      },
      "geometry": {
        "type": "Point",
        "coordinates": [
          129.9367787911825,
          13.374386006558499
        ]
      }
    },
    {
      "type": "Feature",
      "properties": {
        "norad_id": 41891,
        "name": "CYGFM03",
        "group": "weather",
        "lat": -6.8036335416083205,
        "lon": -38.073262710284425,
        "alt_km": 414.41640438538434,
        "timestamp": "2025-12-20T14:38:01.600711+00:00",
        "meta_object_name": "CYGFM03",
        "meta_object_id": "2016-078H",
        "meta_epoch": "2025-12-20T03:51:57.687840",
        "meta_mean_motion": 15.50193117,
        "meta_eccentricity": 0.00096748,
        "meta_inclination": 34.9438,
        "meta_ra_of_asc_node": 334.7075,
        "meta_arg_of_pericenter": 266.431,
        "meta_mean_anomaly": 93.5306,
        "meta_ephemeris_type": 0,
        "meta_classification_type": "U",
        "meta_norad_cat_id": 41891,
        "meta_element_set_no": 999,
        "meta_rev_at_epoch": 50108,
        "meta_bstar": 0.00027404007,
        "meta_mean_motion_dot": 0.00015965,
        "meta_mean_motion_ddot": 0,
        "tle_line1": "1 41891U 16078H   25354.16108435  .00015965  00000+0  27404-3 0  9997",
        "tle_line2": "2 41891  34.9438 334.7075 0009674 266.4310  93.5306 15.50193117501086"
      },
      "geometry": {
        "type": "Point",
        "coordinates": [
          -38.073262710284425,
          -6.8036335416083205
        ]
      }
    },
    {
      "type": "Feature",
      "properties": {
        "norad_id": 43010,
        "name": "FENGYUN 3D",
        "group": "weather",
        "lat": -66.04418100353398,
        "lon": 120.16598906759327,
        "alt_km": 833.627697096751,
        "timestamp": "2025-12-20T14:38:01.600723+00:00",
        "meta_object_name": "FENGYUN 3D",
        "meta_object_id": "2017-072A",
        "meta_epoch": "2025-12-20T05:00:48.668832",
        "meta_mean_motion": 14.19685565,
        "meta_eccentricity": 0.00013157,
        "meta_inclination": 98.9894,
        "meta_ra_of_asc_node": 320.6309,
        "meta_arg_of_pericenter": 157.8766,
        "meta_mean_anomaly": 202.2467,
        "meta_ephemeris_type": 0,
        "meta_classification_type": "U",
        "meta_norad_cat_id": 43010,
        "meta_element_set_no": 999,
        "meta_rev_at_epoch": 41959,
        "meta_bstar": 1.673642e-06,
        "meta_mean_motion_dot": -4.2e-07,
        "meta_mean_motion_ddot": 0,
        "tle_line1": "1 43010U 17072A   25354.20889663 -.00000042  00000+0  16736-5 0  9990",
        "tle_line2": "2 43010  98.9894 320.6309 0001315 157.8766 202.2467 14.19685565419591"
      },
      "geometry": {
        "type": "Point",
        "coordinates": [
          120.16598906759327,
          -66.04418100353398
        ]
      }
    },
    {
      "type": "Feature",
      "properties": {
        "norad_id": 43013,
        "name": "NOAA 20 (JPSS-1)",
        "group": "weather",
        "lat": 34.761410242842864,
        "lon": -75.32305871919557,
        "alt_km": 823.432339694119,
        "timestamp": "2025-12-20T14:38:01.600734+00:00",
        "meta_object_name": "NOAA 20 (JPSS-1)",
        "meta_object_id": "2017-073A",
        "meta_epoch": "2025-12-20T04:19:06.440160",
        "meta_mean_motion": 14.19527574,
        "meta_eccentricity": 0.00021248,
        "meta_inclination": 98.7609,
        "meta_ra_of_asc_node": 290.3956,
        "meta_arg_of_pericenter": 76.5199,
        "meta_mean_anomaly": 283.6214,
        "meta_ephemeris_type": 0,
        "meta_classification_type": "U",
        "meta_norad_cat_id": 43013,
        "meta_element_set_no": 999,
        "meta_rev_at_epoch": 41907,
        "meta_bstar": 4.4215259e-05,
        "meta_mean_motion_dot": 4.9e-07,
        "meta_mean_motion_ddot": 0,
        "tle_line1": "1 43013U 17073A   25354.17993565  .00000049  00000+0  44215-4 0  9995",
        "tle_line2": "2 43013  98.7609 290.3956 0002124  76.5199 283.6214 14.19527574419074"
      },
      "geometry": {
        "type": "Point",
        "coordinates": [
          -75.32305871919557,
          34.761410242842864
        ]
      }
    },
    {
      "type": "Feature",
      "properties": {
        "norad_id": 43226,
        "name": "GOES 17",
        "group": "weather",
        "lat": 0.3448410801182647,
        "lon": -140.5961846435688,
        "alt_km": 35780.0228513997,
        "timestamp": "2025-12-20T14:38:01.600747+00:00",
        "meta_object_name": "GOES 17",
        "meta_object_id": "2018-022A",
        "meta_epoch": "2025-12-20T04:13:38.642880",
        "meta_mean_motion": 1.00270789,
        "meta_eccentricity": 0.00030859,
        "meta_inclination": 0.4757,
        "meta_ra_of_asc_node": 89.1576,
        "meta_arg_of_pericenter": 191.4696,
        "meta_mean_anomaly": 142.2938,
        "meta_ephemeris_type": 0,
        "meta_classification_type": "U",
        "meta_norad_cat_id": 43226,
        "meta_element_set_no": 999,
        "meta_rev_at_epoch": 2862,
        "meta_bstar": 0,
        "meta_mean_motion_dot": -1.59e-06,
        "meta_mean_motion_ddot": 0,
        "tle_line1": "1 43226U 18022A   25354.17614170 -.00000159  00000+0  00000+0 0  9990",
        "tle_line2": "2 43226   0.4757  89.1576 0003085 191.4696 142.2938  1.00270789 28621"
      },
      "geometry": {
        "type": "Point",
        "coordinates": [
          -140.5961846435688,
          0.3448410801182647
        ]
      }
    },
    {
      "type": "Feature",
      "properties": {
        "norad_id": 43491,
        "name": "FENGYUN 2H",
        "group": "weather",
        "lat": -2.0385976915269057,
        "lon": 28.338242514378795,
        "alt_km": 35794.3185005803,
        "timestamp": "2025-12-20T14:38:01.600771+00:00",
        "meta_object_name": "FENGYUN 2H",
        "meta_object_id": "2018-050A",
        "meta_epoch": "2025-12-20T01:37:25.892256",
        "meta_mean_motion": 1.00271255,
        "meta_eccentricity": 0.00023726,
        "meta_inclination": 2.5689,
        "meta_ra_of_asc_node": 81.2531,
        "meta_arg_of_pericenter": 165.8172,
        "meta_mean_anomaly": 305.5468,
        "meta_ephemeris_type": 0,
        "meta_classification_type": "U",
        "meta_norad_cat_id": 43491,
        "meta_element_set_no": 999,
        "meta_rev_at_epoch": 2764,
        "meta_bstar": 0,
        "meta_mean_motion_dot": -1.08e-06,
        "meta_mean_motion_ddot": 0,
        "tle_line1": "1 43491U 18050A   25354.06766079 -.00000108  00000+0  00000+0 0  9993",
        "tle_line2": "2 43491   2.5689  81.2531 0002372 165.8172 305.5468  1.00271255 27640"
      },
      "geometry": {
        "type": "Point",
        "coordinates": [
          28.338242514378795,
          -2.0385976915269057
        ]
      }
    },
    {
      "type": "Feature",
      "properties": {
        "norad_id": 43689,
        "name": "METOP-C",
        "group": "weather",
        "lat": -50.979940637977734,
        "lon": -138.6228121701577,
        "alt_km": 827.7871505269513,
        "timestamp": "2025-12-20T14:38:01.600783+00:00",
        "meta_object_name": "METOP-C",
        "meta_object_id": "2018-087A",
        "meta_epoch": "2025-12-20T03:24:39.440160",
        "meta_mean_motion": 14.21487049,
        "meta_eccentricity": 8.905e-05,
        "meta_inclination": 98.6919,
        "meta_ra_of_asc_node": 51.798,
        "meta_arg_of_pericenter": 26.1664,
        "meta_mean_anomaly": 333.9558,
        "meta_ephemeris_type": 0,
        "meta_classification_type": "U",
        "meta_norad_cat_id": 43689,
        "meta_element_set_no": 999,
        "meta_rev_at_epoch": 36939,
        "meta_bstar": 6.5341825e-05,
        "meta_mean_motion_dot": 9.9e-07,
        "meta_mean_motion_ddot": 0,
        "tle_line1": "1 43689U 18087A   25354.14212315  .00000099  00000+0  65342-4 0  9993",
        "tle_line2": "2 43689  98.6919  51.7980 0000890  26.1664 333.9558 14.21487049369392"
      },
      "geometry": {
        "type": "Point",
        "coordinates": [
          -138.6228121701577,
          -50.979940637977734
        ]
      }
    }
  ]
}